CSS (TIANHE)            
1 48274U 21035A   23345.59879131  .00011886  00000+0  12827-3 0  9992
2 48274  41.4685 155.3563 0007516 316.6201  43.4047 15.63469422149571
